{
    "type": "FeatureCollection",
    "features": [
      {
        "type": "Feature",
        "properties": {},
        "geometry": {
          "coordinates": [
            [
              -66.05469452429591,
              18.403092968409467
            ],
            [
              -66.05211329467078,
              18.40296590329764
            ],
            [
              -66.05225668534483,
              18.399954392676946
            ],
            [
              -66.05257213907635,
              18.398448685307358
            ],
            [
              -66.04944643656845,
              18.397659741288507
            ],
            [
              -66.04954204714048,
              18.396831221405364
            ],
            [
              -66.05176918097638,
              18.397484205689224
            ],
            [
              -66.05094704623211,
              18.400377686365147
            ]
          ],
          "type": "LineString"
        }
      }
    ]
  }